start=new Date('2022-10-18T00:00:00.000Z').valueOf();
sats=[{"OBJECT_NAME":"STARLINK-4022","REV_AT_EPOCH":"2393","OBJECT_TYPE":"PAYLOAD","CLASSIFICATION_TYPE":"U","BSTAR":"0.00010070000000","TLE_LINE1":"1 52629U 22052AH  22290.62513065  .00001315  00000-0  10070-3 0  9999","COUNTRY_CODE":"US","INCLINATION":"53.2196","ECCENTRICITY":"0.00018610","EPOCH":"2022-10-17T15:00:11.288160","ELEMENT_SET_NO":"999","ARG_OF_PERICENTER":"47.0534","RA_OF_ASC_NODE":"71.4957","SEMIMAJOR_AXIS":"6917.875","DECAY_DATE":null,"FILE":"3620294","TIME_SYSTEM":"UTC","EPHEMERIS_TYPE":"0","CENTER_NAME":"EARTH","MEAN_MOTION_DOT":"0.00001315","SITE":"AFETR","GP_ID":"215451583","TLE_LINE2":"2 52629  53.2196  71.4957 0001861  47.0534 313.0614 15.08841687 23937","MEAN_ANOMALY":"313.0614","OBJECT_ID":"2022-052AH","REF_FRAME":"TEME","PERIAPSIS":"538.453","MEAN_MOTION_DDOT":"0.0000000000000","NORAD_CAT_ID":"52629","LAUNCH_DATE":"2022-05-14","RCS_SIZE":"LARGE","MEAN_ELEMENT_THEORY":"SGP4","APOAPSIS":"541.028","MEAN_MOTION":"15.08841687","PERIOD":"95.437"},{"ARG_OF_PERICENTER":"46.9993","ECCENTRICITY":"0.00020940","ELEMENT_SET_NO":"999","INCLINATION":"53.2210","EPOCH":"2022-10-17T18:26:51.960480","TLE_LINE1":"1 52630U 22052AJ  22290.76865695 -.00000072  00000-0  13597-4 0  9993","COUNTRY_CODE":"US","BSTAR":"0.00001359700000","MEAN_MOTION_DOT":"-0.00000072","SITE":"AFETR","FILE":"3619741","TIME_SYSTEM":"UTC","CENTER_NAME":"EARTH","EPHEMERIS_TYPE":"0","DECAY_DATE":null,"SEMIMAJOR_AXIS":"6917.899","RA_OF_ASC_NODE":"70.8559","REV_AT_EPOCH":"2433","OBJECT_NAME":"STARLINK-3989","CLASSIFICATION_TYPE":"U","OBJECT_TYPE":"PAYLOAD","MEAN_ELEMENT_THEORY":"SGP4","RCS_SIZE":"LARGE","LAUNCH_DATE":"2022-05-14","PERIOD":"95.438","MEAN_MOTION":"15.08833753","APOAPSIS":"541.213","REF_FRAME":"TEME","OBJECT_ID":"2022-052AJ","MEAN_ANOMALY":"313.1174","TLE_LINE2":"2 52630  53.2210  70.8559 0002094  46.9993 313.1174 15.08833753 24335","GP_ID":"215415342","NORAD_CAT_ID":"52630","MEAN_MOTION_DDOT":"0.0000000000000","PERIAPSIS":"538.316"},{"NORAD_CAT_ID":"52631","MEAN_MOTION_DDOT":"0.0000000000000","PERIAPSIS":"538.436","OBJECT_ID":"2022-052AK","REF_FRAME":"TEME","MEAN_ANOMALY":"303.4700","GP_ID":"215451238","TLE_LINE2":"2 52631  53.2209  71.2156 0001881  56.6472 303.4700 15.08842700 23951","PERIOD":"95.437","APOAPSIS":"541.038","MEAN_MOTION":"15.08842700","RCS_SIZE":"LARGE","MEAN_ELEMENT_THEORY":"SGP4","LAUNCH_DATE":"2022-05-14","CLASSIFICATION_TYPE":"U","OBJECT_TYPE":"PAYLOAD","REV_AT_EPOCH":"2395","OBJECT_NAME":"STARLINK-3794","MEAN_MOTION_DOT":"0.00001146","SITE":"AFETR","EPHEMERIS_TYPE":"0","FILE":"3620294","CENTER_NAME":"EARTH","TIME_SYSTEM":"UTC","DECAY_DATE":null,"RA_OF_ASC_NODE":"71.2156","SEMIMAJOR_AXIS":"6917.872","EPOCH":"2022-10-17T16:30:16.735680","INCLINATION":"53.2209","ECCENTRICITY":"0.00018810","ELEMENT_SET_NO":"999","ARG_OF_PERICENTER":"56.6472","BSTAR":"0.00009009000000","COUNTRY_CODE":"US","TLE_LINE1":"1 52631U 22052AK  22290.68769370  .00001146  00000-0  90090-4 0  9993"},{"PERIAPSIS":"538.519","MEAN_MOTION_DDOT":"0.0000000000000","NORAD_CAT_ID":"52632","GP_ID":"215451252","TLE_LINE2":"2 52632  53.2194  70.5620 0001813  46.7602 313.3541 15.08831056 23970","MEAN_ANOMALY":"313.3541","OBJECT_ID":"2022-052AL","REF_FRAME":"TEME","APOAPSIS":"541.027","MEAN_MOTION":"15.08831056","PERIOD":"95.438","LAUNCH_DATE":"2022-05-14","RCS_SIZE":"LARGE","MEAN_ELEMENT_THEORY":"SGP4","OBJECT_TYPE":"PAYLOAD","CLASSIFICATION_TYPE":"U","OBJECT_NAME":"STARLINK-3995","REV_AT_EPOCH":"2397","RA_OF_ASC_NODE":"70.5620","SEMIMAJOR_AXIS":"6917.908","DECAY_DATE":null,"EPHEMERIS_TYPE":"0","FILE":"3620294","TIME_SYSTEM":"UTC","CENTER_NAME":"EARTH","SITE":"AFETR","MEAN_MOTION_DOT":"-0.00001595","BSTAR":"-0.00008213100000","COUNTRY_CODE":"US","TLE_LINE1":"1 52632U 22052AL  22290.83122142 -.00001595  00000-0 -82131-4 0  9998","EPOCH":"2022-10-17T19:56:57.530688","INCLINATION":"53.2194","ELEMENT_SET_NO":"999","ECCENTRICITY":"0.00018130","ARG_OF_PERICENTER":"46.7602"},{"REF_FRAME":"TEME","OBJECT_ID":"2022-052AM","TLE_LINE2":"2 52633  53.2195  70.6605 0001816  54.6183 305.4979 15.08844677 24343","GP_ID":"215414840","MEAN_ANOMALY":"305.4979","NORAD_CAT_ID":"52633","MEAN_MOTION_DDOT":"0.0000000000000","PERIAPSIS":"538.475","MEAN_ELEMENT_THEORY":"SGP4","RCS_SIZE":"LARGE","LAUNCH_DATE":"2022-05-14","PERIOD":"95.437","MEAN_MOTION":"15.08844677","APOAPSIS":"540.987","REV_AT_EPOCH":"2434","OBJECT_NAME":"STARLINK-3994","CLASSIFICATION_TYPE":"U","OBJECT_TYPE":"PAYLOAD","ARG_OF_PERICENTER":"54.6183","EPOCH":"2022-10-17T19:25:08.967648","ECCENTRICITY":"0.00018160","INCLINATION":"53.2195","ELEMENT_SET_NO":"999","COUNTRY_CODE":"US","TLE_LINE1":"1 52633U 22052AM  22290.80913157  .00000356  00000-0  40449-4 0  9998","BSTAR":"0.00004044900000","TIME_SYSTEM":"UTC","FILE":"3619741","CENTER_NAME":"EARTH","EPHEMERIS_TYPE":"0","MEAN_MOTION_DOT":"0.00000356","SITE":"AFETR","SEMIMAJOR_AXIS":"6917.866","RA_OF_ASC_NODE":"70.6605","DECAY_DATE":null},{"OBJECT_TYPE":"PAYLOAD","CLASSIFICATION_TYPE":"U","OBJECT_NAME":"STARLINK-3974","REV_AT_EPOCH":"2394","RA_OF_ASC_NODE":"71.2108","SEMIMAJOR_AXIS":"6917.880","DECAY_DATE":null,"TIME_SYSTEM":"UTC","FILE":"3620294","EPHEMERIS_TYPE":"0","CENTER_NAME":"EARTH","MEAN_MOTION_DOT":"0.00001672","SITE":"AFETR","BSTAR":"0.00012313000000","COUNTRY_CODE":"US","TLE_LINE1":"1 52634U 22052AN  22290.68865579  .00001672  00000-0  12313-3 0  9999","ELEMENT_SET_NO":"999","ECCENTRICITY":"0.00020330","EPOCH":"2022-10-17T16:31:39.860256","INCLINATION":"53.2197","ARG_OF_PERICENTER":"42.8318","PERIAPSIS":"538.339","NORAD_CAT_ID":"52634","MEAN_MOTION_DDOT":"0.0000000000000","GP_ID":"215451418","TLE_LINE2":"2 52634  53.2197  71.2108 0002033  42.8318 317.2833 15.08840049 23946","MEAN_ANOMALY":"317.2833","OBJECT_ID":"2022-052AN","REF_FRAME":"TEME","APOAPSIS":"541.152","MEAN_MOTION":"15.08840049","PERIOD":"95.438","LAUNCH_DATE":"2022-05-14","RCS_SIZE":"LARGE","MEAN_ELEMENT_THEORY":"SGP4"},{"LAUNCH_DATE":"2022-05-14","MEAN_ELEMENT_THEORY":"SGP4","RCS_SIZE":"LARGE","MEAN_MOTION":"15.08837122","APOAPSIS":"541.152","PERIOD":"95.438","MEAN_ANOMALY":"326.8762","TLE_LINE2":"2 52635  53.2181  61.3372 0002021  33.2356 326.8762 15.08837122 24087","GP_ID":"215451657","REF_FRAME":"TEME","OBJECT_ID":"2022-052AP","PERIAPSIS":"538.356","MEAN_MOTION_DDOT":"0.0000000000000","NORAD_CAT_ID":"52635","COUNTRY_CODE":"US","TLE_LINE1":"1 52635U 22052AP  22290.65917804 -.00000216  00000-0  45232-5 0  9998","BSTAR":"0.00000452320000","ARG_OF_PERICENTER":"33.2356","EPOCH":"2022-10-17T15:49:12.982656","INCLINATION":"53.2181","ECCENTRICITY":"0.00020210","ELEMENT_SET_NO":"999","DECAY_DATE":null,"SEMIMAJOR_AXIS":"6917.889","RA_OF_ASC_NODE":"61.3372","MEAN_MOTION_DOT":"-0.00000216","SITE":"AFETR","TIME_SYSTEM":"UTC","FILE":"3620294","CENTER_NAME":"EARTH","EPHEMERIS_TYPE":"0","OBJECT_NAME":"STARLINK-3978","REV_AT_EPOCH":"2408","OBJECT_TYPE":"PAYLOAD","CLASSIFICATION_TYPE":"U"},{"GP_ID":"215451671","TLE_LINE2":"2 52636  53.2189  71.5185 0001669  54.2089 305.9058 15.08839859 23932","MEAN_ANOMALY":"305.9058","OBJECT_ID":"2022-052AQ","REF_FRAME":"TEME","PERIAPSIS":"538.591","NORAD_CAT_ID":"52636","MEAN_MOTION_DDOT":"0.0000000000000","LAUNCH_DATE":"2022-05-14","RCS_SIZE":"LARGE","MEAN_ELEMENT_THEORY":"SGP4","APOAPSIS":"540.900","MEAN_MOTION":"15.08839859","PERIOD":"95.438","OBJECT_NAME":"STARLINK-3967","REV_AT_EPOCH":"2393","OBJECT_TYPE":"PAYLOAD","CLASSIFICATION_TYPE":"U","BSTAR":"0.00017060000000","COUNTRY_CODE":"US","TLE_LINE1":"1 52636U 22052AQ  22290.61777890  .00002428  00000-0  17060-3 0  9996","ECCENTRICITY":"0.00016690","EPOCH":"2022-10-17T14:49:36.096960","INCLINATION":"53.2189","ELEMENT_SET_NO":"999","ARG_OF_PERICENTER":"54.2089","RA_OF_ASC_NODE":"71.5185","SEMIMAJOR_AXIS":"6917.881","DECAY_DATE":null,"CENTER_NAME":"EARTH","FILE":"3620294","EPHEMERIS_TYPE":"0","TIME_SYSTEM":"UTC","SITE":"AFETR","MEAN_MOTION_DOT":"0.00002428"},{"APOAPSIS":"541.143","MEAN_MOTION":"15.08834061","PERIOD":"95.438","LAUNCH_DATE":"2022-05-14","RCS_SIZE":"LARGE","MEAN_ELEMENT_THEORY":"SGP4","PERIAPSIS":"538.384","NORAD_CAT_ID":"52637","MEAN_MOTION_DDOT":"0.0000000000000","GP_ID":"215451584","TLE_LINE2":"2 52637  53.2184  60.7612 0001994  47.1393 312.9766 15.08834061 24905","MEAN_ANOMALY":"312.9766","OBJECT_ID":"2022-052AR","REF_FRAME":"TEME","RA_OF_ASC_NODE":"60.7612","SEMIMAJOR_AXIS":"6917.899","DECAY_DATE":null,"FILE":"3620294","TIME_SYSTEM":"UTC","CENTER_NAME":"EARTH","EPHEMERIS_TYPE":"0","MEAN_MOTION_DOT":"-0.00000200","SITE":"AFETR","BSTAR":"0.00000555280000","COUNTRY_CODE":"US","TLE_LINE1":"1 52637U 22052AR  22290.78797654 -.00000200  00000-0  55528-5 0  9995","EPOCH":"2022-10-17T18:54:41.173056","ECCENTRICITY":"0.00019940","ELEMENT_SET_NO":"999","INCLINATION":"53.2184","ARG_OF_PERICENTER":"47.1393","OBJECT_TYPE":"PAYLOAD","CLASSIFICATION_TYPE":"U","OBJECT_NAME":"STARLINK-3961","REV_AT_EPOCH":"2490"},{"OBJECT_NAME":"STARLINK-3941","REV_AT_EPOCH":"2475","OBJECT_TYPE":"PAYLOAD","CLASSIFICATION_TYPE":"U","TLE_LINE1":"1 52638U 22052AS  22290.68033398  .00002219  00000-0  15746-3 0  9990","COUNTRY_CODE":"US","BSTAR":"0.00015746000000","ARG_OF_PERICENTER":"54.0096","EPOCH":"2022-10-17T16:19:40.855872","INCLINATION":"53.2203","ECCENTRICITY":"0.00016640","ELEMENT_SET_NO":"999","SEMIMAJOR_AXIS":"6917.888","RA_OF_ASC_NODE":"71.2428","DECAY_DATE":null,"CENTER_NAME":"EARTH","FILE":"3620294","EPHEMERIS_TYPE":"0","TIME_SYSTEM":"UTC","SITE":"AFETR","MEAN_MOTION_DOT":"0.00002219","TLE_LINE2":"2 52638  53.2203  71.2428 0001664  54.0096 306.1050 15.08837464 24755","GP_ID":"215451837","MEAN_ANOMALY":"306.1050","REF_FRAME":"TEME","OBJECT_ID":"2022-052AS","PERIAPSIS":"538.602","MEAN_MOTION_DDOT":"0.0000000000000","NORAD_CAT_ID":"52638","LAUNCH_DATE":"2022-05-14","MEAN_ELEMENT_THEORY":"SGP4","RCS_SIZE":"LARGE","MEAN_MOTION":"15.08837464","APOAPSIS":"540.904","PERIOD":"95.438"}];
